[{"OBJECT_NAME":"STARLINK-30298","OBJECT_ID":"2023-124C","EPOCH":"2026-03-09T14:52:57.273312","MEAN_MOTION":15.30189614,"ECCENTRICITY":0.0001425,"INCLINATION":53.1607,"RA_OF_ASC_NODE":207.3888,"ARG_OF_PERICENTER":95.3928,"MEAN_ANOMALY":264.7235,"EPHEMERIS_TYPE":0,"CLASSIFICATION_TYPE":"U","NORAD_CAT_ID":57665,"ELEMENT_SET_NO":999,"REV_AT_EPOCH":14355,"BSTAR":-3.1256e-5,"MEAN_MOTION_DOT":-1.285e-5,"MEAN_MOTION_DDOT":0},{"OBJECT_NAME":"THORAD AGENA D DEB","OBJECT_ID":"1969-082CP","EPOCH":"2026-03-09T22:51:31.947840","MEAN_MOTION":15.31252047,"ECCENTRICITY":0.00108961,"INCLINATION":69.8927,"RA_OF_ASC_NODE":265.8646,"ARG_OF_PERICENTER":335.0972,"MEAN_ANOMALY":24.9676,"EPHEMERIS_TYPE":0,"CLASSIFICATION_TYPE":"U","NORAD_CAT_ID":4133,"ELEMENT_SET_NO":999,"REV_AT_EPOCH":97550,"BSTAR":0.0018489552,"MEAN_MOTION_DOT":0.00056347,"MEAN_MOTION_DDOT":0}]
